{"type": "FeatureCollection", "features": [ {"type": "Feature", "properties": {"norad_id": 41335, "name": "SENTINEL-3A", "group": "resource", "lat": 31.23409283034976, "lon": 46.95759164017902, "alt_km": 800.517467426198, "timestamp": "2025-12-13T05:42:57.154416+00:00", "meta": {"OBJECT_NAME": "SENTINEL-3A", "OBJECT_ID": "2016-011A", "EPOCH": "2025-12-12T06:00:15.692832", "MEAN_MOTION": 14.26730438, "ECCENTRICITY": 9.538e-05, "INCLINATION": 98.6316, "RA_OF_ASC_NODE": 51.2687, "ARG_OF_PERICENTER": 90.4124, "MEAN_ANOMALY": 269.7166, "EPHEMERIS_TYPE": 0, "CLASSIFICATION_TYPE": "U", "NORAD_CAT_ID": 41335, "ELEMENT_SET_NO": 999, "REV_AT_EPOCH": 51140, "BSTAR": 0.00013537434, "MEAN_MOTION_DOT": 2.84e-06, "MEAN_MOTION_DDOT": 0}, "tle": {"line1": "1 41335U 16011A   25346.25018163  .00000284  00000+0  13537-3 0  9996", "line2": "2 41335  98.6316  51.2687 0000953  90.4124 269.7166 14.26730438511403"}}, "geometry": {"type": "Point", "coordinates": [46.95759164017902, 31.23409283034976]}}, {"type": "Feature", "properties": {"norad_id": 41556, "name": "ZIYUAN 3-2 (ZY 3-2)", "group": "resource", "lat": -46.31249788111308, "lon": 69.2214501061322, "alt_km": 504.60107026394417, "timestamp": "2025-12-13T05:42:57.154427+00:00", "meta": {"OBJECT_NAME": "ZIYUAN 3-2 (ZY 3-2)", "OBJECT_ID": "2016-033A", "EPOCH": "2025-12-12T07:49:25.385664", "MEAN_MOTION": 15.21493791, "ECCENTRICITY": 0.00124416, "INCLINATION": 97.4041, "RA_OF_ASC_NODE": 60.4997, "ARG_OF_PERICENTER": 250.5939, "MEAN_ANOMALY": 109.3953, "EPHEMERIS_TYPE": 0, "CLASSIFICATION_TYPE": "U", "NORAD_CAT_ID": 41556, "ELEMENT_SET_NO": 999, "REV_AT_EPOCH": 52957, "BSTAR": 0.00046229916, "MEAN_MOTION_DOT": 0.00010358, "MEAN_MOTION_DDOT": 0}, "tle": {"line1": "1 41556U 16033A   25346.32598826  .00010358  00000+0  46230-3 0  9991", "line2": "2 41556  97.4041  60.4997 0012441 250.5939 109.3953 15.21493791529578"}}, "geometry": {"type": "Point", "coordinates": [69.2214501061322, -46.31249788111308]}}, {"type": "Feature", "properties": {"norad_id": 41599, "name": "CARTOSAT-2C", "group": "resource", "lat": -71.5916307978023, "lon": -158.75693929087433, "alt_km": 522.6760213792359, "timestamp": "2025-12-13T05:42:57.154438+00:00", "meta": {"OBJECT_NAME": "CARTOSAT-2C", "OBJECT_ID": "2016-040A", "EPOCH": "2025-12-12T06:28:33.338784", "MEAN_MOTION": 15.19288437, "ECCENTRICITY": 0.00109094, "INCLINATION": 97.4765, "RA_OF_ASC_NODE": 43.525, "ARG_OF_PERICENTER": 67.0016, "MEAN_ANOMALY": 293.2368, "EPHEMERIS_TYPE": 0, "CLASSIFICATION_TYPE": "U", "NORAD_CAT_ID": 41599, "ELEMENT_SET_NO": 999, "REV_AT_EPOCH": 52533, "BSTAR": 0.00032307176, "MEAN_MOTION_DOT": 6.759e-05, "MEAN_MOTION_DDOT": 0}, "tle": {"line1": "1 41599U 16040A   25346.26983031  .00006759  00000+0  32307-3 0  9995", "line2": "2 41599  97.4765  43.5250 0010909  67.0016 293.2368 15.19288437525335"}}, "geometry": {"type": "Point", "coordinates": [-158.75693929087433, -71.5916307978023]}}, {"type": "Feature", "properties": {"norad_id": 41601, "name": "SKYSAT-C1", "group": "resource", "lat": -27.82228401676806, "lon": 27.932437507975308, "alt_km": 472.68562880295394, "timestamp": "2025-12-13T05:42:57.154449+00:00", "meta": {"OBJECT_NAME": "SKYSAT-C1", "OBJECT_ID": "2016-040C", "EPOCH": "2025-12-12T01:37:54.884640", "MEAN_MOTION": 15.32569887, "ECCENTRICITY": 0.0002447, "INCLINATION": 96.983, "RA_OF_ASC_NODE": 23.1193, "ARG_OF_PERICENTER": 16.8765, "MEAN_ANOMALY": 343.2559, "EPHEMERIS_TYPE": 0, "CLASSIFICATION_TYPE": "U", "NORAD_CAT_ID": 41601, "ELEMENT_SET_NO": 999, "REV_AT_EPOCH": 52917, "BSTAR": 0.00044349387, "MEAN_MOTION_DOT": 0.00013887, "MEAN_MOTION_DDOT": 0}, "tle": {"line1": "1 41601U 16040C   25346.06799635  .00013887  00000+0  44349-3 0  9991", "line2": "2 41601  96.9830  23.1193 0002447  16.8765 343.2559 15.32569887529177"}}, "geometry": {"type": "Point", "coordinates": [27.932437507975308, -27.82228401676806]}}, {"type": "Feature", "properties": {"norad_id": 41603, "name": "LAPAN-A3", "group": "resource", "lat": 64.92835755031318, "lon": -179.67397778276694, "alt_km": 470.08182642038355, "timestamp": "2025-12-13T05:42:57.154459+00:00", "meta": {"OBJECT_NAME": "LAPAN-A3", "OBJECT_ID": "2016-040E", "EPOCH": "2025-12-12T07:16:01.049088", "MEAN_MOTION": 15.31545408, "ECCENTRICITY": 0.00097005, "INCLINATION": 97.1433, "RA_OF_ASC_NODE": 343.8749, "ARG_OF_PERICENTER": 335.7049, "MEAN_ANOMALY": 24.3734, "EPHEMERIS_TYPE": 0, "CLASSIFICATION_TYPE": "U", "NORAD_CAT_ID": 41603, "ELEMENT_SET_NO": 999, "REV_AT_EPOCH": 52619, "BSTAR": 0.00020920896, "MEAN_MOTION_DOT": 6.307e-05, "MEAN_MOTION_DDOT": 0}, "tle": {"line1": "1 41603U 16040E   25346.30278992  .00006307  00000+0  20921-3 0  9997", "line2": "2 41603  97.1433 343.8749 0009700 335.7049  24.3734 15.31545408526190"}}, "geometry": {"type": "Point", "coordinates": [-179.67397778276694, 64.92835755031318]}}, {"type": "Feature", "properties": {"norad_id": 41604, "name": "BIROS", "group": "resource", "lat": 40.82891589125573, "lon": 12.534822262785235, "alt_km": 300.2007740849185, "timestamp": "2025-12-13T05:42:57.154470+00:00", "meta": {"OBJECT_NAME": "BIROS", "OBJECT_ID": "2016-040F", "EPOCH": "2025-12-12T02:20:56.988384", "MEAN_MOTION": 15.89451278, "ECCENTRICITY": 0.00033015, "INCLINATION": 97.07, "RA_OF_ASC_NODE": 17.5048, "ARG_OF_PERICENTER": 153.1943, "MEAN_ANOMALY": 206.9502, "EPHEMERIS_TYPE": 0, "CLASSIFICATION_TYPE": "U", "NORAD_CAT_ID": 41604, "ELEMENT_SET_NO": 999, "REV_AT_EPOCH": 52862, "BSTAR": 0.0006906007, "MEAN_MOTION_DOT": 0.00199195, "MEAN_MOTION_DDOT": 1.6197971e-05}, "tle": {"line1": "1 41604U 16040F   25346.09788181  .00199195  16198-4  69060-3 0  9995", "line2": "2 41604  97.0700  17.5048 0003301 153.1943 206.9502 15.89451278528625"}}, "geometry": {"type": "Point", "coordinates": [12.534822262785235, 40.82891589125573]}}, {"type": "Feature", "properties": {"norad_id": 41727, "name": "GAOFEN-3", "group": "resource", "lat": 81.49803761953665, "lon": -105.6939762885854, "alt_km": 742.8579723283701, "timestamp": "2025-12-13T05:42:57.154481+00:00", "meta": {"OBJECT_NAME": "GAOFEN-3", "OBJECT_ID": "2016-049A", "EPOCH": "2025-12-12T07:38:54.621600", "MEAN_MOTION": 14.42213478, "ECCENTRICITY": 0.00014455, "INCLINATION": 98.4043, "RA_OF_ASC_NODE": 351.9112, "ARG_OF_PERICENTER": 62.0255, "MEAN_ANOMALY": 298.1081, "EPHEMERIS_TYPE": 0, "CLASSIFICATION_TYPE": "U", "NORAD_CAT_ID": 41727, "ELEMENT_SET_NO": 999, "REV_AT_EPOCH": 49171, "BSTAR": 6.0767365e-05, "MEAN_MOTION_DOT": 1.57e-06, "MEAN_MOTION_DDOT": 0}, "tle": {"line1": "1 41727U 16049A   25346.31868775  .00000157  00000+0  60767-4 0  9998", "line2": "2 41727  98.4043 351.9112 0001445  62.0255 298.1081 14.42213478491714"}}, "geometry": {"type": "Point", "coordinates": [-105.6939762885854, 81.49803761953665]}}, {"type": "Feature", "properties": {"norad_id": 41771, "name": "SKYSAT-C4", "group": "resource", "lat": -73.89293972035217, "lon": 37.34278077056968, "alt_km": 447.68605827315696, "timestamp": "2025-12-13T05:42:57.154491+00:00", "meta": {"OBJECT_NAME": "SKYSAT-C4", "OBJECT_ID": "2016-058B", "EPOCH": "2025-12-12T00:27:20.747232", "MEAN_MOTION": 15.42215688, "ECCENTRICITY": 0.0001466, "INCLINATION": 96.9379, "RA_OF_ASC_NODE": 11.2413, "ARG_OF_PERICENTER": 133.9929, "MEAN_ANOMALY": 226.1441, "EPHEMERIS_TYPE": 0, "CLASSIFICATION_TYPE": "U", "NORAD_CAT_ID": 41771, "ELEMENT_SET_NO": 999, "REV_AT_EPOCH": 51656, "BSTAR": 0.00046677, "MEAN_MOTION_DOT": 0.00019985, "MEAN_MOTION_DDOT": 0}, "tle": {"line1": "1 41771U 16058B   25346.01899013  .00019985  00000+0  46677-3 0  9995", "line2": "2 41771  96.9379  11.2413 0001466 133.9929 226.1441 15.42215688516565"}}, "geometry": {"type": "Point", "coordinates": [37.34278077056968, -73.89293972035217]}}, {"type": "Feature", "properties": {"norad_id": 41772, "name": "SKYSAT-C5", "group": "resource", "lat": -4.631426861721315, "lon": -149.60460994538798, "alt_km": 464.618402259689, "timestamp": "2025-12-13T05:42:57.154502+00:00", "meta": {"OBJECT_NAME": "SKYSAT-C5", "OBJECT_ID": "2016-058C", "EPOCH": "2025-12-11T13:47:56.889600", "MEAN_MOTION": 15.34906129, "ECCENTRICITY": 4.67e-05, "INCLINATION": 97.0751, "RA_OF_ASC_NODE": 29.3759, "ARG_OF_PERICENTER": 257.3192, "MEAN_ANOMALY": 102.8, "EPHEMERIS_TYPE": 0, "CLASSIFICATION_TYPE": "U", "NORAD_CAT_ID": 41772, "ELEMENT_SET_NO": 999, "REV_AT_EPOCH": 51498, "BSTAR": 0.00046261, "MEAN_MOTION_DOT": 0.00015598, "MEAN_MOTION_DDOT": 0}, "tle": {"line1": "1 41772U 16058C   25345.57496400  .00015598  00000+0  46261-3 0  9994", "line2": "2 41772  97.0751  29.3759 0000467 257.3192 102.8000 15.34906129514981"}}, "geometry": {"type": "Point", "coordinates": [-149.60460994538798, -4.631426861721315]}}, {"type": "Feature", "properties": {"norad_id": 41773, "name": "SKYSAT-C2", "group": "resource", "lat": -20.374484811462498, "lon": -170.88549573815703, "alt_km": 462.3771851743304, "timestamp": "2025-12-13T05:42:57.154512+00:00", "meta": {"OBJECT_NAME": "SKYSAT-C2", "OBJECT_ID": "2016-058D", "EPOCH": "2025-12-12T00:43:35.830848", "MEAN_MOTION": 15.37243964, "ECCENTRICITY": 0.0004321, "INCLINATION": 97.0369, "RA_OF_ASC_NODE": 10.587, "ARG_OF_PERICENTER": 36.2464, "MEAN_ANOMALY": 323.9073, "EPHEMERIS_TYPE": 0, "CLASSIFICATION_TYPE": "U", "NORAD_CAT_ID": 41773, "ELEMENT_SET_NO": 999, "REV_AT_EPOCH": 51625, "BSTAR": 0.00047659, "MEAN_MOTION_DOT": 0.00017332, "MEAN_MOTION_DDOT": 0}, "tle": {"line1": "1 41773U 16058D   25346.03027582  .00017332  00000+0  47659-3 0  9998", "line2": "2 41773  97.0369  10.5870 0004321  36.2464 323.9073 15.37243964516254"}}, "geometry": {"type": "Point", "coordinates": [-170.88549573815703, -20.374484811462498]}}]}